CTC2_L_00184001-01
1 10000U 22653EI  26075.70042824  .00000000  00000+0  00000-0 0  9995
2 10000  75.0000   0.0000 0000000   0.0000   0.0000 14.79785908    14
CTC2_L_00184001-02
1 10001U 24827WE  26075.70042824  .00000000  00000+0  00000-0 0  9991
2 10001  75.0000   0.0000 0000000   0.0000  90.0000 14.79785908    14
CTC2_L_00184001-03
1 10002U 24648SV  26075.70042824  .00000000  00000+0  00000-0 0  9993
2 10002  75.0000   0.0000 0000000   0.0000 180.0000 14.79785908    15
CTC2_L_00184001-04
1 10003U 25443SC  26075.70042824  .00000000  00000+0  00000-0 0  9998
2 10003  75.0000   0.0000 0000000   0.0000 270.0000 14.79785908    16
CTC2_L_00184002-01
1 10004U 25506YB  26075.70042824  .00000000  00000+0  00000-0 0  9999
2 10004  75.0000  12.0000 0000000   0.0000  12.0000 14.79785908    14
CTC2_L_00184002-02
1 10005U 23702HO  26075.70042824  .00000000  00000+0  00000-0 0  9996
2 10005  75.0000  12.0000 0000000   0.0000 102.0000 14.79785908    15
CTC2_L_00184002-03
1 10006U 22408WB  26075.70042824  .00000000  00000+0  00000-0 0  9999
2 10006  75.0000  12.0000 0000000   0.0000 192.0000 14.79785908    15
CTC2_L_00184002-04
1 10007U 24398RB  26075.70042824  .00000000  00000+0  00000-0 0  9990
2 10007  75.0000  12.0000 0000000   0.0000 282.0000 14.79785908    16
CTC2_L_00184003-01
1 10008U 26044YW  26075.70042824  .00000000  00000+0  00000-0 0  9991
2 10008  75.0000  24.0000 0000000   0.0000  24.0000 14.79785908    14
CTC2_L_00184003-02
1 10009U 25671PV  26075.70042824  .00000000  00000+0  00000-0 0  9997
2 10009  75.0000  24.0000 0000000   0.0000 114.0000 14.79785908    15
CTC2_L_00184003-03
1 10010U 26423KS  26075.70042824  .00000000  00000+0  00000-0 0  9995
2 10010  75.0000  24.0000 0000000   0.0000 204.0000 14.79785908    17
CTC2_L_00184003-04
1 10011U 25246VT  26075.70042824  .00000000  00000+0  00000-0 0  9998
2 10011  75.0000  24.0000 0000000   0.0000 294.0000 14.79785908    17
CTC2_L_00184004-01
1 10012U 26298NB  26075.70042824  .00000000  00000+0  00000-0 0  9997
2 10012  75.0000  36.0000 0000000   0.0000  36.0000 14.79785908    15
CTC2_L_00184004-02
1 10013U 25555YN  26075.70042824  .00000000  00000+0  00000-0 0  9993
2 10013  75.0000  36.0000 0000000   0.0000 126.0000 14.79785908    16
CTC2_L_00184004-03
1 10014U 26659QS  26075.70042824  .00000000  00000+0  00000-0 0  9990
2 10014  75.0000  36.0000 0000000   0.0000 216.0000 14.79785908    17
CTC2_L_00184004-04
1 10015U 25828ME  26075.70042824  .00000000  00000+0  00000-0 0  9998
2 10015  75.0000  36.0000 0000000   0.0000 306.0000 14.79785908    18
CTC2_L_00184005-01
1 10016U 23306GO  26075.70042824  .00000000  00000+0  00000-0 0  9998
2 10016  75.0000  48.0000 0000000   0.0000  48.0000 14.79785908    15
CTC2_L_00184005-02
1 10017U 23602BG  26075.70042824  .00000000  00000+0  00000-0 0  9998
2 10017  75.0000  48.0000 0000000   0.0000 138.0000 14.79785908    16
CTC2_L_00184005-03
1 10018U 22446RZ  26075.70042824  .00000000  00000+0  00000-0 0  9994
2 10018  75.0000  48.0000 0000000   0.0000 228.0000 14.79785908    17
CTC2_L_00184005-04
1 10019U 22111KF  26075.70042824  .00000000  00000+0  00000-0 0  9994
2 10019  75.0000  48.0000 0000000   0.0000 318.0000 14.79785908    18
CTC2_L_00184006-01
1 10020U 22180TA  26075.70042824  .00000000  00000+0  00000-0 0  9992
2 10020  75.0000  60.0000 0000000   0.0000  60.0000 14.79785908    18
CTC2_L_00184006-02
1 10021U 25753OL  26075.70042824  .00000000  00000+0  00000-0 0  9992
2 10021  75.0000  60.0000 0000000   0.0000 150.0000 14.79785908    19
CTC2_L_00184006-03
1 10022U 24959TZ  26075.70042824  .00000000  00000+0  00000-0 0  9990
2 10022  75.0000  60.0000 0000000   0.0000 240.0000 14.79785908    10
CTC2_L_00184006-04
1 10023U 22448VQ  26075.70042824  .00000000  00000+0  00000-0 0  9992
2 10023  75.0000  60.0000 0000000   0.0000 330.0000 14.79785908    11
CTC2_L_00184007-01
1 10024U 23902UE  26075.70042824  .00000000  00000+0  00000-0 0  9999
2 10024  75.0000  72.0000 0000000   0.0000  72.0000 14.79785908    18
CTC2_L_00184007-02
1 10025U 24859WE  26075.70042824  .00000000  00000+0  00000-0 0  9992
2 10025  75.0000  72.0000 0000000   0.0000 162.0000 14.79785908    19
CTC2_L_00184007-03
1 10026U 26025WK  26075.70042824  .00000000  00000+0  00000-0 0  9990
2 10026  75.0000  72.0000 0000000   0.0000 252.0000 14.79785908    10
CTC2_L_00184007-04
1 10027U 26583GZ  26075.70042824  .00000000  00000+0  00000-0 0  9990
2 10027  75.0000  72.0000 0000000   0.0000 342.0000 14.79785908    11
CTC2_L_00184008-01
1 10028U 26338AP  26075.70042824  .00000000  00000+0  00000-0 0  9999
2 10028  75.0000  84.0000 0000000   0.0000  84.0000 14.79785908    18
CTC2_L_00184008-02
1 10029U 25485UT  26075.70042824  .00000000  00000+0  00000-0 0  9992
2 10029  75.0000  84.0000 0000000   0.0000 174.0000 14.79785908    19
CTC2_L_00184008-03
1 10030U 24401KO  26075.70042824  .00000000  00000+0  00000-0 0  9991
2 10030  75.0000  84.0000 0000000   0.0000 264.0000 14.79785908    11
CTC2_L_00184008-04
1 10031U 26381XL  26075.70042824  .00000000  00000+0  00000-0 0  9991
2 10031  75.0000  84.0000 0000000   0.0000 354.0000 14.79785908    12
CTC2_L_00184009-01
1 10032U 22492IQ  26075.70042824  .00000000  00000+0  00000-0 0  9991
2 10032  75.0000  96.0000 0000000   0.0000  96.0000 14.79785908    19
CTC2_L_00184009-02
1 10033U 26856AG  26075.70042824  .00000000  00000+0  00000-0 0  9990
2 10033  75.0000  96.0000 0000000   0.0000 186.0000 14.79785908    10
CTC2_L_00184009-03
1 10034U 26336HG  26075.70042824  .00000000  00000+0  00000-0 0  9994
2 10034  75.0000  96.0000 0000000   0.0000 276.0000 14.79785908    11
CTC2_L_00184009-04
1 10035U 26294YK  26075.70042824  .00000000  00000+0  00000-0 0  9998
2 10035  75.0000  96.0000 0000000   0.0000   6.0000 14.79785908    13
CTC2_L_00184010-01
1 10036U 22996VO  26075.70042824  .00000000  00000+0  00000-0 0  9994
2 10036  75.0000 108.0000 0000000   0.0000 108.0000 14.79785908    11
CTC2_L_00184010-02
1 10037U 24254XE  26075.70042824  .00000000  00000+0  00000-0 0  9994
2 10037  75.0000 108.0000 0000000   0.0000 198.0000 14.79785908    11
CTC2_L_00184010-03
1 10038U 26814AK  26075.70042824  .00000000  00000+0  00000-0 0  9999
2 10038  75.0000 108.0000 0000000   0.0000 288.0000 14.79785908    12
CTC2_L_00184010-04
1 10039U 26378HN  26075.70042824  .00000000  00000+0  00000-0 0  9995
2 10039  75.0000 108.0000 0000000   0.0000  18.0000 14.79785908    14
CTC2_L_00184011-01
1 10040U 24780AJ  26075.70042824  .00000000  00000+0  00000-0 0  9992
2 10040  75.0000 120.0000 0000000   0.0000 120.0000 14.79785908    14
CTC2_L_00184011-02
1 10041U 26471BM  26075.70042824  .00000000  00000+0  00000-0 0  9992
2 10041  75.0000 120.0000 0000000   0.0000 210.0000 14.79785908    15
CTC2_L_00184011-03
1 10042U 24356YQ  26075.70042824  .00000000  00000+0  00000-0 0  9993
2 10042  75.0000 120.0000 0000000   0.0000 300.0000 14.79785908    16
CTC2_L_00184011-04
1 10043U 24136SQ  26075.70042824  .00000000  00000+0  00000-0 0  9990
2 10043  75.0000 120.0000 0000000   0.0000  30.0000 14.79785908    17
CTC2_L_00184012-01
1 10044U 23650PJ  26075.70042824  .00000000  00000+0  00000-0 0  9991
2 10044  75.0000 132.0000 0000000   0.0000 132.0000 14.79785908    14
CTC2_L_00184012-02
1 10045U 23919HL  26075.70042824  .00000000  00000+0  00000-0 0  9990
2 10045  75.0000 132.0000 0000000   0.0000 222.0000 14.79785908    15
CTC2_L_00184012-03
1 10046U 24970ZU  26075.70042824  .00000000  00000+0  00000-0 0  9999
2 10046  75.0000 132.0000 0000000   0.0000 312.0000 14.79785908    16
CTC2_L_00184012-04
1 10047U 23500JG  26075.70042824  .00000000  00000+0  00000-0 0  9998
2 10047  75.0000 132.0000 0000000   0.0000  42.0000 14.79785908    17
CTC2_L_00184013-01
1 10048U 23560TX  26075.70042824  .00000000  00000+0  00000-0 0  9995
2 10048  75.0000 144.0000 0000000   0.0000 144.0000 14.79785908    14
CTC2_L_00184013-02
1 10049U 22184TK  26075.70042824  .00000000  00000+0  00000-0 0  9997
2 10049  75.0000 144.0000 0000000   0.0000 234.0000 14.79785908    15
CTC2_L_00184013-03
1 10050U 25441TV  26075.70042824  .00000000  00000+0  00000-0 0  9998
2 10050  75.0000 144.0000 0000000   0.0000 324.0000 14.79785908    17
CTC2_L_00184013-04
1 10051U 23990KB  26075.70042824  .00000000  00000+0  00000-0 0  9996
2 10051  75.0000 144.0000 0000000   0.0000  54.0000 14.79785908    18
CTC2_L_00184014-01
1 10052U 26239FF  26075.70042824  .00000000  00000+0  00000-0 0  9996
2 10052  75.0000 156.0000 0000000   0.0000 156.0000 14.79785908    15
CTC2_L_00184014-02
1 10053U 22498KV  26075.70042824  .00000000  00000+0  00000-0 0  9990
2 10053  75.0000 156.0000 0000000   0.0000 246.0000 14.79785908    16
CTC2_L_00184014-03
1 10054U 24897IQ  26075.70042824  .00000000  00000+0  00000-0 0  9996
2 10054  75.0000 156.0000 0000000   0.0000 336.0000 14.79785908    17
CTC2_L_00184014-04
1 10055U 24204U   26075.70042824  .00000000  00000+0  00000-0 0  9999
2 10055  75.0000 156.0000 0000000   0.0000  66.0000 14.79785908    18
CTC2_L_00184015-01
1 10056U 23387XE  26075.70042824  .00000000  00000+0  00000-0 0  9991
2 10056  75.0000 168.0000 0000000   0.0000 168.0000 14.79785908    15
CTC2_L_00184015-02
1 10057U 25101NC  26075.70042824  .00000000  00000+0  00000-0 0  9998
2 10057  75.0000 168.0000 0000000   0.0000 258.0000 14.79785908    16
CTC2_L_00184015-03
1 10058U 24654GG  26075.70042824  .00000000  00000+0  00000-0 0  9991
2 10058  75.0000 168.0000 0000000   0.0000 348.0000 14.79785908    17
CTC2_L_00184015-04
1 10059U 23195IV  26075.70042824  .00000000  00000+0  00000-0 0  9991
2 10059  75.0000 168.0000 0000000   0.0000  78.0000 14.79785908    18
CTC2_L_00184016-01
1 10060U 24733IN  26075.70042824  .00000000  00000+0  00000-0 0  9992
2 10060  75.0000 180.0000 0000000   0.0000 180.0000 14.79785908    18
CTC2_L_00184016-02
1 10061U 24940XK  26075.70042824  .00000000  00000+0  00000-0 0  9993
2 10061  75.0000 180.0000 0000000   0.0000 270.0000 14.79785908    19
